ONEWEB-0324             
1 49193U 21083H   21332.58334491  .00000015  00000+0  00000+0 0  9992
2 49193  87.8402 305.9343 0023781  55.8020  11.6643 13.66550053 12238
ONEWEB-0325             
1 49194U 21083J   21332.58334491  .00000015  00000+0  00000+0 0  9993
2 49194  87.8444 305.8676 0022245  52.6187 159.6904 13.74150281 12237
ONEWEB-0326             
1 49195U 21083K   21332.58334491  .00000015  00000+0  00000+0 0  9994
2 49195  87.8499 305.9001 0024453  48.1734 192.3285 13.62834939 12234
ONEWEB-0327             
1 49196U 21083L   21332.58334491 -.00047673  00000+0 -51666-1 0  9994
2 49196  87.8613 305.9199 0023476  57.4677  20.7442 13.73289243 12248
ONEWEB-0328             
1 49197U 21083M   21332.25002315  .00040385  00000+0  44667-2 0  9991
2 49197  87.1974 301.8647 0020607  44.3943 299.5605 14.87036626 12461
ONEWEB-0331             
1 49198U 21083N   21332.58334491  .00000015  00000+0  00000+0 0  9997
2 49198  87.8673 305.8885 0022147  54.7405 200.9018 13.66158402 12245
ONEWEB-0333             
1 49199U 21083P   21332.25002315  .00042127  00000+0  46541-2 0  9992
2 49199  87.2013 301.8993 0020300  43.8457 262.5474 14.87078594 12460
ONEWEB-0334             
1 49200U 21083Q   21332.25002315  .00046603  00000+0  48245-2 0  9991
2 49200  87.1993 301.7835 0022827  37.7854 153.0909 14.89650658 12480
ONEWEB-0335             
1 49201U 21083R   21331.91667824  .00009668  00000+0  10689-2 0  9997
2 49201  87.2018 302.0337 0022632  34.9098  76.7653 14.87108137  3546
ONEWEB-0336             
1 49202U 21083S   21332.25002315  .00046092  00000+0  50898-2 0  9992
2 49202  87.1993 301.8911 0020398  32.2061 137.5980 14.87075638 12460
ONEWEB-0337             
1 49203U 21083T   21332.25002315  .00045608  00000+0  50301-2 0  9994
2 49203  87.1999 301.8975 0022477  36.9004 116.8155 14.87096443 12466
ONEWEB-0338             
1 49204U 21083U   21331.91667824  .00010194  00000+0  10579-2 0  9994
2 49204  87.2052 301.9570 0022400  45.5212  41.1149 14.89677442  3563
ONEWEB-0339             
1 49205U 21083V   21332.25002315  .00045799  00000+0  50590-2 0  9997
2 49205  87.1986 301.8779 0020578  37.3442 180.6651 14.87062132 12465
ONEWEB-0340             
1 49206U 21083W   21332.58334491  .00000015  00000+0  00000+0 0  9997
2 49206  87.8267 305.9010 0020079  56.2389 121.2195 13.60815902 12223
ONEWEB-0341             
1 49207U 21083X   21332.58334491  .00000015  00000+0  00000+0 0  9998
2 49207  87.8034 305.8624 0022085  57.9918 280.3156 13.69370395 12237
ONEWEB-0342             
1 49208U 21083Y   21331.91667824  .00011806  00000+0  12248-2 0  9994
2 49208  87.2016 301.9244 0022805  33.8583 214.5282 14.89690929  3553
ONEWEB-0343             
1 49209U 21083Z   21332.58334491  .00000015  00000+0  00000+0 0  9990
2 49209  87.8662 305.8896 0023979  51.2931 359.4386 13.75839281 12269
ONEWEB-0344             
1 49210U 21083AA  21331.91667824  .00009362  00000+0  10359-2 0  9992
2 49210  87.1975 301.9968 0021578  33.0642  87.6317 14.87089035  3541
ONEWEB-0345             
1 49211U 21083AB  21332.25002315  .00045047  00000+0  49721-2 0  9994
2 49211  87.1993 301.8931 0021370  35.2347 105.9718 14.87085060 12461
ONEWEB-0346             
1 49212U 21083AC  21332.58334491  .00000015  00000+0  00000+0 0  9994
2 49212  87.8139 305.8934 0021287  59.6880  73.4349 13.65169490 12225
ONEWEB-0348             
1 49213U 21083AD  21331.91667824  .00010225  00000+0  10611-2 0  9996
2 49213  87.2040 301.9486 0022290  38.1635 174.1217 14.89679775  3553
ONEWEB-0350             
1 49214U 21083AE  21332.25002315  .00044797  00000+0  49466-2 0  9994
2 49214  87.2001 301.8893 0019317  42.3930 203.3241 14.87099735 12465
ONEWEB-0351             
1 49215U 21083AF  21332.25002315  .00042104  00000+0  43651-2 0  9995
2 49215  87.1968 301.7670 0019940  31.0047 295.6304 14.89660883 12492
ONEWEB-0352             
1 49216U 21083AG  21331.91667824  .00010778  00000+0  11934-2 0  9991
2 49216  87.2001 302.0143 0019760  41.0855 183.8242 14.87097775  3546
ONEWEB-0354             
1 49217U 21083AH  21331.91667824  .00010946  00000+0  11375-2 0  9998
2 49217  87.2024 301.9240 0019957  30.2540 200.2914 14.89667473  3558
ONEWEB-0355             
1 49218U 21083AJ  21331.91667824  .00013208  00000+0  14604-2 0  9991
2 49218  87.1976 301.9807 0019878  44.7116 267.7270 14.87160493  3555
ONEWEB-0357             
1 49219U 21083AK  21332.25002315  .00046105  00000+0  47781-2 0  9992
2 49219  87.2017 301.8081 0021883  38.1361 117.8319 14.89625288 12485
ONEWEB-0332             
1 49279U 21090A   21332.25002315  .00061317  00000+0  65668-2 0  9992
2 49279  87.1969 277.7497 0010644  95.8022 195.9824 14.88349804  6796
ONEWEB-0347             
1 49280U 21090B   21332.25002315  .00057435  00000+0  61543-2 0  9998
2 49280  87.2002 277.7724 0011840 116.7031 220.6486 14.88340008  6799
ONEWEB-0349             
1 49281U 21090C   21332.25002315  .00052202  00000+0  52485-2 0  9991
2 49281  87.2025 277.7127 0014319 103.3721 289.1008 14.90913736  8096
ONEWEB-0353             
1 49282U 21090D   21332.25002315  .00060450  00000+0  64726-2 0  9997
2 49282  87.1979 277.7462 0012158 103.0483 199.6204 14.88350764  8082
ONEWEB-0356             
1 49283U 21090E   21332.58334491 -.00020784  00000+0 -21155-2 0  9994
2 49283  87.2023 277.6056 0010012 108.1274  46.7547 14.90954685  8147
ONEWEB-0358             
1 49284U 21090F   21332.58334491 -.00019577  00000+0 -21224-2 0  9990
2 49284  87.1969 277.6280 0010484  95.3031 185.9817 14.88402932  8131
ONEWEB-0359             
1 49285U 21090G   21332.58334491 -.00020527  00000+0 -22260-2 0  9999
2 49285  87.2006 277.6498 0011164 115.2160 269.3176 14.88389571  8113
ONEWEB-0360             
1 49286U 21090H   21332.58334491 -.00020764  00000+0 -21127-2 0  9994
2 49286  87.2031 277.6099 0009017 103.5982  28.7740 14.90976960  8138
ONEWEB-0361             
1 49287U 21090J   21332.58334491 -.00020666  00000+0 -21038-2 0  9997
2 49287  87.2029 277.6055 0011093 110.0581 111.7610 14.90940035  8147
ONEWEB-0362             
1 49288U 21090K   21332.58334491 -.00943575  00000+0 -21927+0 0  9995
2 49288  87.4731 278.4695 0009375 106.4298 184.9050 14.57945256  8089
ONEWEB-0363             
1 49289U 21090L   21332.58334491 -.00020773  00000+0 -21145-2 0  9997
2 49289  87.2046 277.6178 0008687 106.7270  23.2913 14.90962478  8133
ONEWEB-0364             
1 49290U 21090M   21332.25002315  .00054449  00000+0  58321-2 0  9991
2 49290  87.2013 277.7740 0012772 114.4753 281.0695 14.88363585  8061
ONEWEB-0365             
1 49291U 21090N   21332.25002315 -.01085004  00000+0 -26915+0 0  9997
2 49291  87.4747 278.5970 0010519 101.4546 113.7529 14.55362378  8032
ONEWEB-0366             
1 49292U 21090P   21332.58334491 -.00020439  00000+0 -22176-2 0  9995
2 49292  87.1993 277.6368 0011003  95.7057 145.2085 14.88368550  8137
ONEWEB-0367             
1 49293U 21090Q   21332.25002315  .00058422  00000+0  58755-2 0  9990
2 49293  87.2066 277.7488 0008932 102.3415 354.5329 14.90915278  8082
ONEWEB-0368             
1 49294U 21090R   21332.25002315  .00058742  00000+0  62889-2 0  9999
2 49294  87.2036 277.7795 0013273 108.3019 357.1248 14.88354673  8072
ONEWEB-0369             
1 49295U 21090S   21332.50001157 -.01031380  00000+0 -25652+0 0  9997
2 49295  87.4716 278.5179 0009740 100.9268   2.9058 14.55081040  8076
ONEWEB-0370             
1 49296U 21090T   21332.58334491 -.00020383  00000+0 -20755-2 0  9998
2 49296  87.2011 277.5932 0012966 107.0667 134.1962 14.90911979  8168
ONEWEB-0371             
1 49297U 21090U   21332.25002315 -.01107476  00000+0 -25951+0 0  9990
2 49297  87.4725 278.5802 0007192 114.3276 257.4674 14.58087768  8031
ONEWEB-0372             
1 49298U 21090V   21332.25002315  .00055695  00000+0  55989-2 0  9990
2 49298  87.2016 277.7039 0013870 104.8512 259.5492 14.90905473  8098
ONEWEB-0373             
1 49299U 21090W   21332.58334491 -.00020950  00000+0 -22736-2 0  9992
2 49299  87.1992 277.6414 0010839  98.1683  90.1077 14.88362410  8131
ONEWEB-0374             
1 49300U 21090X   21332.58334491 -.00019951  00000+0 -21646-2 0  9993
2 49300  87.2019 277.6622 0010682 115.3199 152.1694 14.88371322  8110
ONEWEB-0375             
1 49301U 21090Y   21332.25002315  .00056856  00000+0  60928-2 0  9994
2 49301  87.1966 277.7475 0008467  98.8058 245.5175 14.88364156  8089
ONEWEB-0376             
1 49302U 21090Z   21332.25002315 -.01094902  00000+0 -25137+0 0  9992
2 49302  87.4757 278.5907 0008639 107.7686 294.3899 14.58971563  8031
ONEWEB-0377             
1 49303U 21090AA  21332.25002315  .00054669  00000+0  58586-2 0  9993
2 49303  87.2012 277.7798 0011018 121.1898 290.4486 14.88357536  8066
ONEWEB-0378             
1 49304U 21090AB  21332.58334491 -.00313910  00000+0 -33049-1 0  9998
2 49304  87.1970 277.5646 0013886  84.3886 329.7909 14.91170883  8171
ONEWEB-0379             
1 49305U 21090AC  21332.25002315  .00055730  00000+0  59665-2 0  9994
2 49305  87.2005 277.7630 0013286 108.2746 325.8168 14.88371101  8077
ONEWEB-0380             
1 49306U 21090AD  21332.25002315 -.01091121  00000+0 -25967+0 0  9997
2 49306  87.4856 278.5981 0009311 115.0927 317.4859 14.57306805  8038
ONEWEB-0381             
1 49307U 21090AE  21332.58334491 -.00020833  00000+0 -21207-2 0  9994
2 49307  87.2058 277.6175 0009966 108.9332  85.5382 14.90951169  8134
ONEWEB-0382             
1 49308U 21090AF  21332.58334491 -.00020745  00000+0 -20687-2 0  9998
2 49308  87.2008 277.5713 0014421  90.0628  51.0464 14.91734443  8154
ONEWEB-0383             
1 49309U 21090AG  21332.58334491 -.00019538  00000+0 -21223-2 0  9994
2 49309  87.1994 277.6369 0012868 102.2132 266.7340 14.88302358  8144
ONEWEB-0384             
1 49310U 21090AH  21332.58334491 -.00020791  00000+0 -21166-2 0  9995
2 49310  87.1999 277.5849 0013657  89.4121  49.8972 14.90915514  8153
